{
  "norad_id": 66130,
  "name": "STARLINK-35637",
  "history": [
    {
      "epoch": "2026-03-28T22:01:08.042016",
      "apogee_km": 476.084507385679,
      "perigee_km": 474.3985762643897,
      "latitude_deg": -12.832665829092203,
      "longitude_deg": 161.07560223992914,
      "semi_major_axis_km": 6853.378541825034,
      "eccentricity": 0.000123,
      "inclination_deg": 53.1586,
      "raan_deg": 310.3679,
      "arg_perigee_deg": 72.6199,
      "mean_anomaly_deg": 287.4936,
      "mean_motion_rev_day": 15.30191134
    }
  ]
}